start=new Date('2022-12-12T00:00:00.000Z').valueOf();
sats=[{"SITE":"AFETR","TLE_LINE2":"2 45693  53.0549 333.1559 0001324  73.7812 286.3323 15.06403370139966","ELEMENT_SET_NO":"999","APOAPSIS":"548.120","MEAN_MOTION":"15.06403370","EPHEMERIS_TYPE":"0","TIME_SYSTEM":"UTC","OBJECT_ID":"2020-035AN","TLE_LINE1":"1 45693U 20035AN  22345.39145108  .00001920  00000-0  14773-3 0  9991","INCLINATION":"53.0549","REF_FRAME":"TEME","CENTER_NAME":"EARTH","PERIAPSIS":"546.286","ECCENTRICITY":"0.00013240","OBJECT_NAME":"STARLINK-1417","CLASSIFICATION_TYPE":"U","SEMIMAJOR_AXIS":"6925.338","OBJECT_TYPE":"PAYLOAD","MEAN_ELEMENT_THEORY":"SGP4","DECAY_DATE":null,"FILE":"3690631","MEAN_MOTION_DDOT":"0.0000000000000","LAUNCH_DATE":"2020-06-04","BSTAR":"0.00014773000000","EPOCH":"2022-12-11T09:23:41.373312","GP_ID":"220017249","ARG_OF_PERICENTER":"73.7812","REV_AT_EPOCH":"13996","RCS_SIZE":"LARGE","MEAN_ANOMALY":"286.3323","RA_OF_ASC_NODE":"333.1559","COUNTRY_CODE":"US","PERIOD":"95.592","MEAN_MOTION_DOT":"0.00001920","NORAD_CAT_ID":"45693"},{"RA_OF_ASC_NODE":"331.0352","NORAD_CAT_ID":"45694","MEAN_MOTION_DOT":"0.00022338","COUNTRY_CODE":"US","PERIOD":"95.278","RCS_SIZE":"LARGE","ARG_OF_PERICENTER":"65.5156","REV_AT_EPOCH":"14039","MEAN_ANOMALY":"294.6133","GP_ID":"220094857","MEAN_MOTION_DDOT":"0.0000000000000","LAUNCH_DATE":"2020-06-04","EPOCH":"2022-12-11T09:43:19.693920","BSTAR":"0.00132220000000","OBJECT_TYPE":"PAYLOAD","SEMIMAJOR_AXIS":"6910.172","CLASSIFICATION_TYPE":"U","FILE":"3691993","DECAY_DATE":null,"MEAN_ELEMENT_THEORY":"SGP4","PERIAPSIS":"530.062","ECCENTRICITY":"0.00028590","OBJECT_NAME":"STARLINK-1419","REF_FRAME":"TEME","INCLINATION":"53.0533","CENTER_NAME":"EARTH","TLE_LINE1":"1 45694U 20035AP  22345.40508905  .00022338  00000-0  13222-2 0  9995","OBJECT_ID":"2020-035AP","TIME_SYSTEM":"UTC","SITE":"AFETR","TLE_LINE2":"2 45694  53.0533 331.0352 0002859  65.5156 294.6133 15.11365338140399","EPHEMERIS_TYPE":"0","MEAN_MOTION":"15.11365338","APOAPSIS":"534.013","ELEMENT_SET_NO":"999"},{"DECAY_DATE":null,"FILE":"3691993","MEAN_ELEMENT_THEORY":"SGP4","OBJECT_TYPE":"PAYLOAD","CLASSIFICATION_TYPE":"U","SEMIMAJOR_AXIS":"6925.328","GP_ID":"220094608","MEAN_MOTION_DDOT":"0.0000000000000","LAUNCH_DATE":"2020-06-04","BSTAR":"0.00033572000000","EPOCH":"2022-12-11T07:49:26.882976","MEAN_ANOMALY":"292.9240","RCS_SIZE":"LARGE","ARG_OF_PERICENTER":"67.1907","REV_AT_EPOCH":"14064","NORAD_CAT_ID":"45695","MEAN_MOTION_DOT":"0.00004723","PERIOD":"95.592","COUNTRY_CODE":"US","RA_OF_ASC_NODE":"313.4335","EPHEMERIS_TYPE":"0","APOAPSIS":"548.234","ELEMENT_SET_NO":"999","MEAN_MOTION":"15.06406735","TLE_LINE2":"2 45695  53.0565 313.4335 0001503  67.1907 292.9240 15.06406735140646","SITE":"AFETR","TLE_LINE1":"1 45695U 20035AQ  22345.32600559  .00004723  00000-0  33572-3 0  9994","TIME_SYSTEM":"UTC","OBJECT_ID":"2020-035AQ","CENTER_NAME":"EARTH","INCLINATION":"53.0565","REF_FRAME":"TEME","OBJECT_NAME":"STARLINK-1420","PERIAPSIS":"546.152","ECCENTRICITY":"0.00015030"},{"NORAD_CAT_ID":"45696","MEAN_MOTION_DOT":"0.00015785","COUNTRY_CODE":"US","PERIOD":"95.591","RA_OF_ASC_NODE":"332.7884","MEAN_ANOMALY":"298.9632","RCS_SIZE":"LARGE","ARG_OF_PERICENTER":"61.1516","REV_AT_EPOCH":"13997","GP_ID":"220064350","LAUNCH_DATE":"2020-06-04","EPOCH":"2022-12-11T11:15:10.642752","MEAN_MOTION_DDOT":"0.0000000000000","BSTAR":"0.00107590000000","DECAY_DATE":null,"FILE":"3691561","MEAN_ELEMENT_THEORY":"SGP4","OBJECT_TYPE":"PAYLOAD","CLASSIFICATION_TYPE":"U","SEMIMAJOR_AXIS":"6925.312","OBJECT_NAME":"STARLINK-1422","ECCENTRICITY":"0.00015920","PERIAPSIS":"546.074","CENTER_NAME":"EARTH","INCLINATION":"53.0559","REF_FRAME":"TEME","TLE_LINE1":"1 45696U 20035AR  22345.46887318  .00015785  00000-0  10759-2 0  9991","TIME_SYSTEM":"UTC","OBJECT_ID":"2020-035AR","EPHEMERIS_TYPE":"0","APOAPSIS":"548.279","ELEMENT_SET_NO":"999","MEAN_MOTION":"15.06411957","TLE_LINE2":"2 45696  53.0559 332.7884 0001592  61.1516 298.9632 15.06411957139978","SITE":"AFETR"},{"MEAN_ANOMALY":"295.5213","ARG_OF_PERICENTER":"64.5931","REV_AT_EPOCH":"14073","RCS_SIZE":"LARGE","COUNTRY_CODE":"US","PERIOD":"95.592","MEAN_MOTION_DOT":"0.00006600","NORAD_CAT_ID":"45697","RA_OF_ASC_NODE":"310.8253","MEAN_ELEMENT_THEORY":"SGP4","FILE":"3691993","DECAY_DATE":null,"SEMIMAJOR_AXIS":"6925.350","CLASSIFICATION_TYPE":"U","OBJECT_TYPE":"PAYLOAD","LAUNCH_DATE":"2020-06-04","BSTAR":"0.00046156000000","MEAN_MOTION_DDOT":"0.0000000000000","EPOCH":"2022-12-11T21:49:27.100416","GP_ID":"220094106","CENTER_NAME":"EARTH","REF_FRAME":"TEME","INCLINATION":"53.0547","OBJECT_NAME":"STARLINK-1351","PERIAPSIS":"546.174","ECCENTRICITY":"0.00015030","MEAN_MOTION":"15.06399547","ELEMENT_SET_NO":"999","APOAPSIS":"548.256","EPHEMERIS_TYPE":"0","TLE_LINE2":"2 45697  53.0547 310.8253 0001503  64.5931 295.5213 15.06399547140737","SITE":"AFETR","OBJECT_ID":"2020-035AS","TIME_SYSTEM":"UTC","TLE_LINE1":"1 45697U 20035AS  22345.90934144  .00006600  00000-0  46156-3 0  9998"},{"SITE":"AFETR","TLE_LINE2":"2 45698  53.0565 313.5503 0001990  54.7846 305.3329 15.06404174140643","MEAN_MOTION":"15.06404174","APOAPSIS":"548.579","ELEMENT_SET_NO":"999","EPHEMERIS_TYPE":"0","OBJECT_ID":"2020-035AT","TIME_SYSTEM":"UTC","TLE_LINE1":"1 45698U 20035AT  22345.30021198  .00012350  00000-0  84645-3 0  9993","REF_FRAME":"TEME","INCLINATION":"53.0565","CENTER_NAME":"EARTH","ECCENTRICITY":"0.00019900","PERIAPSIS":"545.823","OBJECT_NAME":"STARLINK-1370","CLASSIFICATION_TYPE":"U","SEMIMAJOR_AXIS":"6925.336","OBJECT_TYPE":"PAYLOAD","MEAN_ELEMENT_THEORY":"SGP4","FILE":"3691993","DECAY_DATE":null,"BSTAR":"0.00084645000000","LAUNCH_DATE":"2020-06-04","MEAN_MOTION_DDOT":"0.0000000000000","EPOCH":"2022-12-11T07:12:18.315072","GP_ID":"220094358","REV_AT_EPOCH":"14064","ARG_OF_PERICENTER":"54.7846","RCS_SIZE":"LARGE","MEAN_ANOMALY":"305.3329","RA_OF_ASC_NODE":"313.5503","COUNTRY_CODE":"US","PERIOD":"95.592","NORAD_CAT_ID":"45698","MEAN_MOTION_DOT":"0.00012350"},{"TLE_LINE1":"1 45699U 20035AU  22345.35643874  .00001170  00000-0  97408-4 0  9990","TIME_SYSTEM":"UTC","OBJECT_ID":"2020-035AU","SITE":"AFETR","TLE_LINE2":"2 45699  53.0556 313.3081 0001473  80.8943 279.2212 15.06398387140645","EPHEMERIS_TYPE":"0","APOAPSIS":"548.239","ELEMENT_SET_NO":"999","MEAN_MOTION":"15.06398387","ECCENTRICITY":"0.00014730","PERIAPSIS":"546.198","OBJECT_NAME":"STARLINK-1398","INCLINATION":"53.0556","REF_FRAME":"TEME","CENTER_NAME":"EARTH","GP_ID":"220095108","EPOCH":"2022-12-11T08:33:16.307136","LAUNCH_DATE":"2020-06-04","MEAN_MOTION_DDOT":"0.0000000000000","BSTAR":"0.00009740800000","OBJECT_TYPE":"PAYLOAD","CLASSIFICATION_TYPE":"U","SEMIMAJOR_AXIS":"6925.354","DECAY_DATE":null,"FILE":"3691993","MEAN_ELEMENT_THEORY":"SGP4","RA_OF_ASC_NODE":"313.3081","MEAN_MOTION_DOT":"0.00001170","NORAD_CAT_ID":"45699","PERIOD":"95.592","COUNTRY_CODE":"US","RCS_SIZE":"LARGE","ARG_OF_PERICENTER":"80.8943","REV_AT_EPOCH":"14064","MEAN_ANOMALY":"279.2212"},{"RCS_SIZE":"LARGE","ARG_OF_PERICENTER":"72.7980","REV_AT_EPOCH":"14022","MEAN_ANOMALY":"287.3152","RA_OF_ASC_NODE":"313.6236","NORAD_CAT_ID":"45700","MEAN_MOTION_DOT":"-0.00003721","COUNTRY_CODE":"US","PERIOD":"95.594","OBJECT_TYPE":"PAYLOAD","SEMIMAJOR_AXIS":"6925.453","CLASSIFICATION_TYPE":"U","DECAY_DATE":null,"FILE":"3690639","MEAN_ELEMENT_THEORY":"SGP4","GP_ID":"220017221","EPOCH":"2022-12-11T06:52:28.452288","LAUNCH_DATE":"2020-06-04","MEAN_MOTION_DDOT":"0.0000000000000","BSTAR":"-0.00023123000000","INCLINATION":"53.0582","REF_FRAME":"TEME","CENTER_NAME":"EARTH","ECCENTRICITY":"0.00013100","PERIAPSIS":"546.410","OBJECT_NAME":"STARLINK-1400","TLE_LINE2":"2 45700  53.0582 313.6236 0001310  72.7980 287.3152 15.06366033140223","SITE":"AFETR","EPHEMERIS_TYPE":"0","ELEMENT_SET_NO":"999","APOAPSIS":"548.225","MEAN_MOTION":"15.06366033","TLE_LINE1":"1 45700U 20035AV  22345.28644042 -.00003721  00000-0 -23123-3 0  9991","TIME_SYSTEM":"UTC","OBJECT_ID":"2020-035AV"},{"MEAN_ELEMENT_THEORY":"SGP4","DECAY_DATE":null,"FILE":"3691993","SEMIMAJOR_AXIS":"6925.347","CLASSIFICATION_TYPE":"U","OBJECT_TYPE":"PAYLOAD","LAUNCH_DATE":"2020-06-04","BSTAR":"-0.00005926300000","MEAN_MOTION_DDOT":"0.0000000000000","EPOCH":"2022-12-11T04:23:49.186752","GP_ID":"220093607","MEAN_ANOMALY":"302.4391","ARG_OF_PERICENTER":"57.6791","REV_AT_EPOCH":"14061","RCS_SIZE":"LARGE","PERIOD":"95.592","COUNTRY_CODE":"US","NORAD_CAT_ID":"45701","MEAN_MOTION_DOT":"-0.00001164","RA_OF_ASC_NODE":"314.0892","APOAPSIS":"548.594","ELEMENT_SET_NO":"999","MEAN_MOTION":"15.06400481","EPHEMERIS_TYPE":"0","SITE":"AFETR","TLE_LINE2":"2 45701  53.0563 314.0892 0001995  57.6791 302.4391 15.06400481140610","TIME_SYSTEM":"UTC","OBJECT_ID":"2020-035AW","TLE_LINE1":"1 45701U 20035AW  22345.18320818 -.00001164  00000-0 -59263-4 0  9997","CENTER_NAME":"EARTH","INCLINATION":"53.0563","REF_FRAME":"TEME","OBJECT_NAME":"STARLINK-1403","PERIAPSIS":"545.830","ECCENTRICITY":"0.00019950"},{"EPHEMERIS_TYPE":"0","ELEMENT_SET_NO":"999","APOAPSIS":"548.367","MEAN_MOTION":"15.06394448","SITE":"AFETR","TLE_LINE2":"2 45702  53.0576 313.8700 0001641  78.2454 281.8719 15.06394448140623","TLE_LINE1":"1 45702U 20035AX  22345.23112713  .00000589  00000-0  58451-4 0  9993","TIME_SYSTEM":"UTC","OBJECT_ID":"2020-035AX","CENTER_NAME":"EARTH","INCLINATION":"53.0576","REF_FRAME":"TEME","OBJECT_NAME":"STARLINK-1405","ECCENTRICITY":"0.00016410","PERIAPSIS":"546.094","DECAY_DATE":null,"FILE":"3691993","MEAN_ELEMENT_THEORY":"SGP4","OBJECT_TYPE":"PAYLOAD","SEMIMAJOR_AXIS":"6925.366","CLASSIFICATION_TYPE":"U","GP_ID":"220094858","LAUNCH_DATE":"2020-06-04","MEAN_MOTION_DDOT":"0.0000000000000","BSTAR":"0.00005845100000","EPOCH":"2022-12-11T05:32:49.384032","MEAN_ANOMALY":"281.8719","RCS_SIZE":"LARGE","REV_AT_EPOCH":"14062","ARG_OF_PERICENTER":"78.2454","MEAN_MOTION_DOT":"0.00000589","NORAD_CAT_ID":"45702","COUNTRY_CODE":"US","PERIOD":"95.592","RA_OF_ASC_NODE":"313.8700"}];
